{"type": "FeatureCollection", "features": [ {"type": "Feature", "properties": {"norad_id": 34077, "name": "IRIDIUM 33 DEB", "group": "iridium-33-debris", "lat": 2.5188364374654273, "lon": -132.19602386907863, "alt_km": 686.420246384525, "timestamp": "2025-12-20T18:51:32.097982+00:00", "meta": {"OBJECT_NAME": "IRIDIUM 33 DEB", "OBJECT_ID": "1997-051CL", "EPOCH": "2025-12-20T09:55:26.414688", "MEAN_MOTION": 14.64912612, "ECCENTRICITY": 0.00093193, "INCLINATION": 86.3853, "RA_OF_ASC_NODE": 48.1273, "ARG_OF_PERICENTER": 14.8582, "MEAN_ANOMALY": 0.412, "EPHEMERIS_TYPE": 0, "CLASSIFICATION_TYPE": "U", "NORAD_CAT_ID": 34077, "ELEMENT_SET_NO": 999, "REV_AT_EPOCH": 88445, "BSTAR": 0.00072672938, "MEAN_MOTION_DOT": 3.909e-05, "MEAN_MOTION_DDOT": 0}, "tle": {"line1": "1 34077U 97051CL  25354.41350017  .00003909  00000+0  72673-3 0  9991", "line2": "2 34077  86.3853  48.1273 0009319  14.8582   0.4120 14.64912612884453"}}, "geometry": {"type": "Point", "coordinates": [-132.19602386907863, 2.5188364374654273]}}, {"type": "Feature", "properties": {"norad_id": 34079, "name": "IRIDIUM 33 DEB", "group": "iridium-33-debris", "lat": -8.707204565938403, "lon": 4.4465149375351505, "alt_km": 618.5692137425476, "timestamp": "2025-12-20T18:51:32.097992+00:00", "meta": {"OBJECT_NAME": "IRIDIUM 33 DEB", "OBJECT_ID": "1997-051CN", "EPOCH": "2025-12-20T07:37:00.373152", "MEAN_MOTION": 14.83707217, "ECCENTRICITY": 0.00047155, "INCLINATION": 86.3768, "RA_OF_ASC_NODE": 5.2156, "ARG_OF_PERICENTER": 341.2972, "MEAN_ANOMALY": 29.7285, "EPHEMERIS_TYPE": 0, "CLASSIFICATION_TYPE": "U", "NORAD_CAT_ID": 34079, "ELEMENT_SET_NO": 999, "REV_AT_EPOCH": 89090, "BSTAR": 0.0011458545, "MEAN_MOTION_DOT": 9.499e-05, "MEAN_MOTION_DDOT": 0}, "tle": {"line1": "1 34079U 97051CN  25354.31736543  .00009499  00000+0  11459-2 0  9998", "line2": "2 34079  86.3768   5.2156 0004715 341.2972  29.7285 14.83707217890906"}}, "geometry": {"type": "Point", "coordinates": [4.4465149375351505, -8.707204565938403]}}, {"type": "Feature", "properties": {"norad_id": 34088, "name": "IRIDIUM 33 DEB", "group": "iridium-33-debris", "lat": -47.66358074592331, "lon": 23.046497803254326, "alt_km": 603.8131893956888, "timestamp": "2025-12-20T18:51:32.098003+00:00", "meta": {"OBJECT_NAME": "IRIDIUM 33 DEB", "OBJECT_ID": "1997-051CX", "EPOCH": "2025-12-20T01:29:37.281120", "MEAN_MOTION": 14.9169164, "ECCENTRICITY": 0.0006466, "INCLINATION": 86.3842, "RA_OF_ASC_NODE": 27.3589, "ARG_OF_PERICENTER": 153.3403, "MEAN_ANOMALY": 235.9617, "EPHEMERIS_TYPE": 0, "CLASSIFICATION_TYPE": "U", "NORAD_CAT_ID": 34088, "ELEMENT_SET_NO": 999, "REV_AT_EPOCH": 88851, "BSTAR": 0.0014202951, "MEAN_MOTION_DOT": 0.00014326, "MEAN_MOTION_DDOT": 0}, "tle": {"line1": "1 34088U 97051CX  25354.06223705  .00014326  00000+0  14203-2 0  9996", "line2": "2 34088  86.3842  27.3589 0006466 153.3403 235.9617 14.91691640888515"}}, "geometry": {"type": "Point", "coordinates": [23.046497803254326, -47.66358074592331]}}, {"type": "Feature", "properties": {"norad_id": 34091, "name": "IRIDIUM 33 DEB", "group": "iridium-33-debris", "lat": -44.343183020486045, "lon": -113.26727953845605, "alt_km": 610.3900651016302, "timestamp": "2025-12-20T18:51:32.098013+00:00", "meta": {"OBJECT_NAME": "IRIDIUM 33 DEB", "OBJECT_ID": "1997-051DA", "EPOCH": "2025-12-20T11:21:59.020992", "MEAN_MOTION": 14.82341401, "ECCENTRICITY": 0.00340405, "INCLINATION": 86.3417, "RA_OF_ASC_NODE": 63.2908, "ARG_OF_PERICENTER": 265.3506, "MEAN_ANOMALY": 94.3828, "EPHEMERIS_TYPE": 0, "CLASSIFICATION_TYPE": "U", "NORAD_CAT_ID": 34091, "ELEMENT_SET_NO": 999, "REV_AT_EPOCH": 87981, "BSTAR": 0.0030472538, "MEAN_MOTION_DOT": 0.00024698, "MEAN_MOTION_DDOT": 0}, "tle": {"line1": "1 34091U 97051DA  25354.47359978  .00024698  00000+0  30473-2 0  9997", "line2": "2 34091  86.3417  63.2908 0034040 265.3506  94.3828 14.82341401879819"}}, "geometry": {"type": "Point", "coordinates": [-113.26727953845605, -44.343183020486045]}}, {"type": "Feature", "properties": {"norad_id": 34097, "name": "IRIDIUM 33 DEB", "group": "iridium-33-debris", "lat": -4.142199852971509, "lon": 178.13210539540552, "alt_km": 830.6329651557198, "timestamp": "2025-12-20T18:51:32.098024+00:00", "meta": {"OBJECT_NAME": "IRIDIUM 33 DEB", "OBJECT_ID": "1997-051DG", "EPOCH": "2025-12-20T11:18:18.737280", "MEAN_MOTION": 14.34833925, "ECCENTRICITY": 0.00817307, "INCLINATION": 86.2, "RA_OF_ASC_NODE": 357.9952, "ARG_OF_PERICENTER": 336.8917, "MEAN_ANOMALY": 22.861, "EPHEMERIS_TYPE": 0, "CLASSIFICATION_TYPE": "U", "NORAD_CAT_ID": 34097, "ELEMENT_SET_NO": 999, "REV_AT_EPOCH": 87230, "BSTAR": 0.0010165837, "MEAN_MOTION_DOT": 3.014e-05, "MEAN_MOTION_DDOT": 0}, "tle": {"line1": "1 34097U 97051DG  25354.47105020  .00003014  00000+0  10166-2 0  9996", "line2": "2 34097  86.2000 357.9952 0081730 336.8917  22.8610 14.34833925872308"}}, "geometry": {"type": "Point", "coordinates": [178.13210539540552, -4.142199852971509]}}, {"type": "Feature", "properties": {"norad_id": 34145, "name": "IRIDIUM 33 DEB", "group": "iridium-33-debris", "lat": -49.60333812926283, "lon": -35.523388714827995, "alt_km": 776.1650007333974, "timestamp": "2025-12-20T18:51:32.098034+00:00", "meta": {"OBJECT_NAME": "IRIDIUM 33 DEB", "OBJECT_ID": "1997-051DY", "EPOCH": "2025-12-20T09:05:57.135264", "MEAN_MOTION": 14.42338365, "ECCENTRICITY": 0.00557355, "INCLINATION": 86.2115, "RA_OF_ASC_NODE": 329.1236, "ARG_OF_PERICENTER": 69.5659, "MEAN_ANOMALY": 291.1513, "EPHEMERIS_TYPE": 0, "CLASSIFICATION_TYPE": "U", "NORAD_CAT_ID": 34145, "ELEMENT_SET_NO": 999, "REV_AT_EPOCH": 87748, "BSTAR": 0.00077021697, "MEAN_MOTION_DOT": 2.611e-05, "MEAN_MOTION_DDOT": 0}, "tle": {"line1": "1 34145U 97051DY  25354.37913351  .00002611  00000+0  77022-3 0  9990", "line2": "2 34145  86.2115 329.1236 0055735  69.5659 291.1513 14.42338365877488"}}, "geometry": {"type": "Point", "coordinates": [-35.523388714827995, -49.60333812926283]}}, {"type": "Feature", "properties": {"norad_id": 34146, "name": "IRIDIUM 33 DEB", "group": "iridium-33-debris", "lat": 36.03552707219301, "lon": 163.5349479894376, "alt_km": 714.1378422629687, "timestamp": "2025-12-20T18:51:32.098044+00:00", "meta": {"OBJECT_NAME": "IRIDIUM 33 DEB", "OBJECT_ID": "1997-051DZ", "EPOCH": "2025-12-20T10:36:37.304352", "MEAN_MOTION": 14.49095208, "ECCENTRICITY": 0.00262607, "INCLINATION": 86.283, "RA_OF_ASC_NODE": 346.3974, "ARG_OF_PERICENTER": 194.7947, "MEAN_ANOMALY": 317.4256, "EPHEMERIS_TYPE": 0, "CLASSIFICATION_TYPE": "U", "NORAD_CAT_ID": 34146, "ELEMENT_SET_NO": 999, "REV_AT_EPOCH": 88218, "BSTAR": 0.00059944717, "MEAN_MOTION_DOT": 2.307e-05, "MEAN_MOTION_DDOT": 0}, "tle": {"line1": "1 34146U 97051DZ  25354.44209843  .00002307  00000+0  59945-3 0  9999", "line2": "2 34146  86.2830 346.3974 0026260 194.7947 317.4256 14.49095208882187"}}, "geometry": {"type": "Point", "coordinates": [163.5349479894376, 36.03552707219301]}}, {"type": "Feature", "properties": {"norad_id": 34159, "name": "IRIDIUM 33 DEB", "group": "iridium-33-debris", "lat": -85.19527011812913, "lon": -4.601226752092148, "alt_km": 752.8115294807503, "timestamp": "2025-12-20T18:51:32.098054+00:00", "meta": {"OBJECT_NAME": "IRIDIUM 33 DEB", "OBJECT_ID": "1997-051EN", "EPOCH": "2025-12-20T14:15:10.537344", "MEAN_MOTION": 14.38510951, "ECCENTRICITY": 0.00260339, "INCLINATION": 86.35, "RA_OF_ASC_NODE": 44.8924, "ARG_OF_PERICENTER": 260.0458, "MEAN_ANOMALY": 99.7801, "EPHEMERIS_TYPE": 0, "CLASSIFICATION_TYPE": "U", "NORAD_CAT_ID": 34159, "ELEMENT_SET_NO": 999, "REV_AT_EPOCH": 88072, "BSTAR": 0.00026124613, "MEAN_MOTION_DOT": 8.2e-06, "MEAN_MOTION_DDOT": 0}, "tle": {"line1": "1 34159U 97051EN  25354.59387196  .00000820  00000+0  26125-3 0  9999", "line2": "2 34159  86.3500  44.8924 0026033 260.0458  99.7801 14.38510951880722"}}, "geometry": {"type": "Point", "coordinates": [-4.601226752092148, -85.19527011812913]}}, {"type": "Feature", "properties": {"norad_id": 34350, "name": "IRIDIUM 33 DEB", "group": "iridium-33-debris", "lat": 38.483088401930296, "lon": 176.38870426948026, "alt_km": 723.6321526459797, "timestamp": "2025-12-20T18:51:32.098065+00:00", "meta": {"OBJECT_NAME": "IRIDIUM 33 DEB", "OBJECT_ID": "1997-051ES", "EPOCH": "2025-12-20T12:08:32.676864", "MEAN_MOTION": 14.45403421, "ECCENTRICITY": 0.00233571, "INCLINATION": 86.3272, "RA_OF_ASC_NODE": 359.437, "ARG_OF_PERICENTER": 111.3737, "MEAN_ANOMALY": 14.544, "EPHEMERIS_TYPE": 0, "CLASSIFICATION_TYPE": "U", "NORAD_CAT_ID": 34350, "ELEMENT_SET_NO": 999, "REV_AT_EPOCH": 88405, "BSTAR": 0.00023374563, "MEAN_MOTION_DOT": 8.45e-06, "MEAN_MOTION_DDOT": 0}, "tle": {"line1": "1 34350U 97051ES  25354.50593376  .00000845  00000+0  23375-3 0  9993", "line2": "2 34350  86.3272 359.4370 0023357 111.3737  14.5440 14.45403421884050"}}, "geometry": {"type": "Point", "coordinates": [176.38870426948026, 38.483088401930296]}}, {"type": "Feature", "properties": {"norad_id": 34366, "name": "IRIDIUM 33 DEB", "group": "iridium-33-debris", "lat": 0.2546905953722129, "lon": 45.830109447341286, "alt_km": 721.9342930402518, "timestamp": "2025-12-20T18:51:32.098075+00:00", "meta": {"OBJECT_NAME": "IRIDIUM 33 DEB", "OBJECT_ID": "1997-051FJ", "EPOCH": "2025-12-20T14:28:26.320224", "MEAN_MOTION": 14.54113627, "ECCENTRICITY": 0.00229834, "INCLINATION": 86.369, "RA_OF_ASC_NODE": 45.8934, "ARG_OF_PERICENTER": 115.1791, "MEAN_ANOMALY": 9.6225, "EPHEMERIS_TYPE": 0, "CLASSIFICATION_TYPE": "U", "NORAD_CAT_ID": 34366, "ELEMENT_SET_NO": 999, "REV_AT_EPOCH": 88296, "BSTAR": 0.00058238853, "MEAN_MOTION_DOT": 2.489e-05, "MEAN_MOTION_DDOT": 0}, "tle": {"line1": "1 34366U 97051FJ  25354.60308241  .00002489  00000+0  58239-3 0  9999", "line2": "2 34366  86.3690  45.8934 0022983 115.1791   9.6225 14.54113627882969"}}, "geometry": {"type": "Point", "coordinates": [45.830109447341286, 0.2546905953722129]}}]}